{
  "type": "FeatureCollection",
  "features": [
    {
      "type": "Feature",
      "properties": {
        "norad_id": 30982,
        "name": "FENGYUN 1C DEB",
        "group": "fengyun-1c-debris",
        "lat": 38.05739968260023,
        "lon": -27.148290948548336,
        "alt_km": 725.2631741237265,
        "timestamp": "2025-12-15T04:01:20.731456+00:00",
        "meta_object_name": "FENGYUN 1C DEB",
        "meta_object_id": "1999-025BBY",
        "meta_epoch": "2025-12-13T22:11:24.804096",
        "meta_mean_motion": 14.50956021,
        "meta_eccentricity": 0.01803674,
        "meta_inclination": 98.2166,
        "meta_ra_of_asc_node": 338.1324,
        "meta_arg_of_pericenter": 308.9069,
        "meta_mean_anomaly": 78.6672,
        "meta_ephemeris_type": 0,
        "meta_classification_type": "U",
        "meta_norad_cat_id": 30982,
        "meta_element_set_no": 999,
        "meta_rev_at_epoch": 71071,
        "meta_bstar": 0.00046336031,
        "meta_mean_motion_dot": 2.206e-05,
        "meta_mean_motion_ddot": 0,
        "tle_line1": "1 30982U 99025BBY 25347.92459264  .00002206  00000+0  46336-3 0  9993",
        "tle_line2": "2 30982  98.2166 338.1324 0180367 308.9069  78.6672 14.50956021710715"
      },
      "geometry": {
        "type": "Point",
        "coordinates": [
          -27.148290948548336,
          38.05739968260023
        ]
      }
    },
    {
      "type": "Feature",
      "properties": {
        "norad_id": 30984,
        "name": "FENGYUN 1C DEB",
        "group": "fengyun-1c-debris",
        "lat": -81.52321123548346,
        "lon": 128.25611415861394,
        "alt_km": 734.3653264936856,
        "timestamp": "2025-12-15T04:01:20.731467+00:00",
        "meta_object_name": "FENGYUN 1C DEB",
        "meta_object_id": "1999-025BCA",
        "meta_epoch": "2025-12-14T08:34:17.695200",
        "meta_mean_motion": 14.50446749,
        "meta_eccentricity": 0.0127269,
        "meta_inclination": 98.2639,
        "meta_ra_of_asc_node": 24.6654,
        "meta_arg_of_pericenter": 3.1447,
        "meta_mean_anomaly": 357.0519,
        "meta_ephemeris_type": 0,
        "meta_classification_type": "U",
        "meta_norad_cat_id": 30984,
        "meta_element_set_no": 999,
        "meta_rev_at_epoch": 95187,
        "meta_bstar": 0.00088527439,
        "meta_mean_motion_dot": 3.793e-05,
        "meta_mean_motion_ddot": 0,
        "tle_line1": "1 30984U 99025BCA 25348.35714925  .00003793  00000+0  88527-3 0  9991",
        "tle_line2": "2 30984  98.2639  24.6654 0127269   3.1447 357.0519 14.50446749951870"
      },
      "geometry": {
        "type": "Point",
        "coordinates": [
          128.25611415861394,
          -81.52321123548346
        ]
      }
    },
    {
      "type": "Feature",
      "properties": {
        "norad_id": 30988,
        "name": "FENGYUN 1C DEB",
        "group": "fengyun-1c-debris",
        "lat": 5.145914721679835,
        "lon": 117.65275455234197,
        "alt_km": 559.5794220650387,
        "timestamp": "2025-12-15T04:01:20.731477+00:00",
        "meta_object_name": "FENGYUN 1C DEB",
        "meta_object_id": "1999-025BCE",
        "meta_epoch": "2025-12-13T19:47:23.460576",
        "meta_mean_motion": 15.26353987,
        "meta_eccentricity": 0.01126053,
        "meta_inclination": 98.54,
        "meta_ra_of_asc_node": 295.3431,
        "meta_arg_of_pericenter": 336.54,
        "meta_mean_anomaly": 23.0719,
        "meta_ephemeris_type": 0,
        "meta_classification_type": "U",
        "meta_norad_cat_id": 30988,
        "meta_element_set_no": 999,
        "meta_rev_at_epoch": 99580,
        "meta_bstar": 0.0020604581,
        "meta_mean_motion_dot": 0.00064818,
        "meta_mean_motion_ddot": 0,
        "tle_line1": "1 30988U 99025BCE 25347.82457709  .00064818  00000+0  20605-2 0  9997",
        "tle_line2": "2 30988  98.5400 295.3431 0112605 336.5400  23.0719 15.26353987995801"
      },
      "geometry": {
        "type": "Point",
        "coordinates": [
          117.65275455234197,
          5.145914721679835
        ]
      }
    },
    {
      "type": "Feature",
      "properties": {
        "norad_id": 30989,
        "name": "FENGYUN 1C DEB",
        "group": "fengyun-1c-debris",
        "lat": 49.331944435479336,
        "lon": 52.07015643803989,
        "alt_km": 792.865737987202,
        "timestamp": "2025-12-15T04:01:20.731487+00:00",
        "meta_object_name": "FENGYUN 1C DEB",
        "meta_object_id": "1999-025BCF",
        "meta_epoch": "2025-12-14T04:00:39.790944",
        "meta_mean_motion": 14.13944801,
        "meta_eccentricity": 0.00908849,
        "meta_inclination": 99.0532,
        "meta_ra_of_asc_node": 61.7516,
        "meta_arg_of_pericenter": 95.8308,
        "meta_mean_anomaly": 265.3233,
        "meta_ephemeris_type": 0,
        "meta_classification_type": "U",
        "meta_norad_cat_id": 30989,
        "meta_element_set_no": 999,
        "meta_rev_at_epoch": 96008,
        "meta_bstar": 0.0016132282,
        "meta_mean_motion_dot": 3.141e-05,
        "meta_mean_motion_ddot": 0,
        "tle_line1": "1 30989U 99025BCF 25348.16712721  .00003141  00000+0  16132-2 0  9996",
        "tle_line2": "2 30989  99.0532  61.7516 0090884  95.8308 265.3233 14.13944801960089"
      },
      "geometry": {
        "type": "Point",
        "coordinates": [
          52.07015643803989,
          49.331944435479336
        ]
      }
    },
    {
      "type": "Feature",
      "properties": {
        "norad_id": 30993,
        "name": "FENGYUN 1C DEB",
        "group": "fengyun-1c-debris",
        "lat": 4.19466999987967,
        "lon": -97.67703657709929,
        "alt_km": 787.3078103860844,
        "timestamp": "2025-12-15T04:01:20.731497+00:00",
        "meta_object_name": "FENGYUN 1C DEB",
        "meta_object_id": "1999-025BCK",
        "meta_epoch": "2025-12-14T05:43:00.142176",
        "meta_mean_motion": 14.35445575,
        "meta_eccentricity": 0.00162449,
        "meta_inclination": 98.8462,
        "meta_ra_of_asc_node": 80.716,
        "meta_arg_of_pericenter": 9.752,
        "meta_mean_anomaly": 45.7681,
        "meta_ephemeris_type": 0,
        "meta_classification_type": "U",
        "meta_norad_cat_id": 30993,
        "meta_element_set_no": 999,
        "meta_rev_at_epoch": 96941,
        "meta_bstar": 0.0020388576,
        "meta_mean_motion_dot": 5.825e-05,
        "meta_mean_motion_ddot": 0,
        "tle_line1": "1 30993U 99025BCK 25348.23819609  .00005825  00000+0  20389-2 0  9992",
        "tle_line2": "2 30993  98.8462  80.7160 0016244   9.7520  45.7681 14.35445575969418"
      },
      "geometry": {
        "type": "Point",
        "coordinates": [
          -97.67703657709929,
          4.19466999987967
        ]
      }
    },
    {
      "type": "Feature",
      "properties": {
        "norad_id": 30994,
        "name": "FENGYUN 1C DEB",
        "group": "fengyun-1c-debris",
        "lat": 6.539198678463054,
        "lon": -3.466357545101346,
        "alt_km": 867.563307158418,
        "timestamp": "2025-12-15T04:01:20.731507+00:00",
        "meta_object_name": "FENGYUN 1C DEB",
        "meta_object_id": "1999-025BCL",
        "meta_epoch": "2025-12-13T16:16:16.346208",
        "meta_mean_motion": 14.1177142,
        "meta_eccentricity": 0.00178982,
        "meta_inclination": 98.7,
        "meta_ra_of_asc_node": 356.0948,
        "meta_arg_of_pericenter": 171.985,
        "meta_mean_anomaly": 188.1611,
        "meta_ephemeris_type": 0,
        "meta_classification_type": "U",
        "meta_norad_cat_id": 30994,
        "meta_element_set_no": 999,
        "meta_rev_at_epoch": 96598,
        "meta_bstar": 0.00023467451,
        "meta_mean_motion_dot": 3.86e-06,
        "meta_mean_motion_ddot": 0,
        "tle_line1": "1 30994U 99025BCL 25347.67796697  .00000386  00000+0  23467-3 0  9999",
        "tle_line2": "2 30994  98.7000 356.0948 0017898 171.9850 188.1611 14.11771420965981"
      },
      "geometry": {
        "type": "Point",
        "coordinates": [
          -3.466357545101346,
          6.539198678463054
        ]
      }
    },
    {
      "type": "Feature",
      "properties": {
        "norad_id": 30996,
        "name": "FENGYUN 1C DEB",
        "group": "fengyun-1c-debris",
        "lat": 67.54563990625671,
        "lon": -128.18254686818108,
        "alt_km": 796.1542606926441,
        "timestamp": "2025-12-15T04:01:20.731518+00:00",
        "meta_object_name": "FENGYUN 1C DEB",
        "meta_object_id": "1999-025BCN",
        "meta_epoch": "2025-12-14T05:00:19.050912",
        "meta_mean_motion": 14.35423366,
        "meta_eccentricity": 0.00500391,
        "meta_inclination": 98.943,
        "meta_ra_of_asc_node": 253.2205,
        "meta_arg_of_pericenter": 287.5355,
        "meta_mean_anomaly": 228.393,
        "meta_ephemeris_type": 0,
        "meta_classification_type": "U",
        "meta_norad_cat_id": 30996,
        "meta_element_set_no": 999,
        "meta_rev_at_epoch": 97584,
        "meta_bstar": 0.0011248403,
        "meta_mean_motion_dot": 3.23e-05,
        "meta_mean_motion_ddot": 0,
        "tle_line1": "1 30996U 99025BCN 25348.20855383  .00003230  00000+0  11248-2 0  9993",
        "tle_line2": "2 30996  98.9430 253.2205 0050039 287.5355 228.3930 14.35423366975840"
      },
      "geometry": {
        "type": "Point",
        "coordinates": [
          -128.18254686818108,
          67.54563990625671
        ]
      }
    }
  ]
}